[{"OBJECT_NAME":"STARLINK-4081","OBJECT_ID":"2022-053E","EPOCH":"2026-03-09T22:51:36.665280","MEAN_MOTION":15.0884594,"ECCENTRICITY":0.00012385,"INCLINATION":53.2172,"RA_OF_ASC_NODE":152.9403,"ARG_OF_PERICENTER":88.7615,"MEAN_ANOMALY":271.3519,"EPHEMERIS_TYPE":0,"CLASSIFICATION_TYPE":"U","NORAD_CAT_ID":52660,"ELEMENT_SET_NO":999,"REV_AT_EPOCH":21115,"BSTAR":-1.3811053e-5,"MEAN_MOTION_DOT":-5.08e-6,"MEAN_MOTION_DDOT":0},{"OBJECT_NAME":"CZ-6A R\/B","OBJECT_ID":"2022-031C","EPOCH":"2026-03-09T19:50:55.360896","MEAN_MOTION":15.07476837,"ECCENTRICITY":0.00174842,"INCLINATION":97.8104,"RA_OF_ASC_NODE":273.2347,"ARG_OF_PERICENTER":181.6412,"MEAN_ANOMALY":178.4761,"EPHEMERIS_TYPE":0,"CLASSIFICATION_TYPE":"U","NORAD_CAT_ID":52152,"ELEMENT_SET_NO":999,"REV_AT_EPOCH":21633,"BSTAR":0.00020233161,"MEAN_MOTION_DOT":3.012e-5,"MEAN_MOTION_DDOT":0}]
